OBJECT_NAME,OBJECT_ID,EPOCH,MEAN_MOTION,ECCENTRICITY,INCLINATION,RA_OF_ASC_NODE,ARG_OF_PERICENTER,MEAN_ANOMALY,EPHEMERIS_TYPE,CLASSIFICATION_TYPE,NORAD_CAT_ID,ELEMENT_SET_NO,REV_AT_EPOCH,BSTAR,MEAN_MOTION_DOT,MEAN_MOTION_DDOT
SAUDISAT 1C (SO-50),2002-058C,2026-06-07T05:49:27.266880,14.83025886,.0075455,64.5504,159.7532,264.2954,94.9545,0,U,27607,999,26298,.16136E-3,.1225E-4,0
SAUDISAT 2,2004-025F,2026-06-06T17:24:48.659616,14.56677808,.00240859,98.5506,157.4372,331.5636,28.4246,0,U,28371,999,16422,.82010002E-4,.318E-5,0
SAUDISAT 3,2007-012B,2026-06-07T03:01:56.212320,14.71419750,.0013268,98.1452,108.5206,258.7826,101.1890,0,U,31118,999,2626,.56388E-4,.298E-5,0
PISAT,2016-059B,2026-06-06T18:58:08.742144,14.68965750,.00276911,97.8178,158.6901,237.2056,122.6482,0,U,41784,999,51821,.18529938E-3,.1044E-4,0
FLYING LAPTOP,2017-042G,2026-06-07T12:28:44.298624,15.01083981,.0019052,97.4653,314.4280,153.2428,206.9784,0,U,42831,999,48500,.35861E-3,.4548E-4,0
SALSAT,2020-068K,2026-06-06T17:52:38.014752,15.29647918,.00090499,97.8851,160.1753,349.8452,10.2602,0,U,46495,999,31376,.35497906E-3,.10129E-3,0
